IRIDIUM 144             
1 43249U 18030A   25184.73684467  .00000014  00000+0 -21241-5 0  9999
2 43249  86.3948  76.0847 0002022  82.5283 277.6142 14.34217523380190
IRIDIUM 149             
1 43250U 18030B   25184.67341800  .00000108  00000+0  31651-4 0  9993
2 43250  86.3951  76.0825 0002087  82.9964 277.1469 14.34217521380200
IRIDIUM 157             
1 43251U 18030C   25184.69244733 -.00000043  00000+0 -22284-4 0  9995
2 43251  86.3949  76.1199 0002166  90.3799 269.7645 14.34217458380189
IRIDIUM 140             
1 43252U 18030D   25184.78124321  .00000011  00000+0 -32674-5 0  9995
2 43252  86.3951  76.0964 0002170  79.9865 280.1575 14.34217558380252
IRIDIUM 145             
1 43253U 18030E   25184.69878883 -.00000020  00000+0 -14234-4 0  9997
2 43253  86.3949  76.1035 0001724  76.8208 283.3180 14.34217350380179
IRIDIUM 146             
1 43254U 18030F   25184.67976108  .00000010  00000+0 -35948-5 0  9999
2 43254  86.3947  76.1249 0001752  77.0750 283.0642 14.34217481380187
IRIDIUM 148             
1 43255U 18030G   25184.78758919  .00000143  00000+0  43841-4 0  9996
2 43255  86.3954  76.1178 0002021  87.9259 272.2168 14.34214763380230
IRIDIUM 142             
1 43256U 18030H   25184.68610334  .00000008  00000+0 -42786-5 0  9993
2 43256  86.3948  76.0618 0001716  77.8721 282.2667 14.34217544380183
